[{"OBJECT_NAME":"STARLINK-2409","OBJECT_ID":"2021-018AP","EPOCH":"2026-03-09T22:07:37.289568","MEAN_MOTION":15.06394579,"ECCENTRICITY":0.00012415,"INCLINATION":53.056,"RA_OF_ASC_NODE":250.576,"ARG_OF_PERICENTER":89.3169,"MEAN_ANOMALY":270.7963,"EPHEMERIS_TYPE":0,"CLASSIFICATION_TYPE":"U","NORAD_CAT_ID":47824,"ELEMENT_SET_NO":999,"REV_AT_EPOCH":27662,"BSTAR":4.0010553e-5,"MEAN_MOTION_DOT":3.15e-6,"MEAN_MOTION_DDOT":0},{"OBJECT_NAME":"STARLING 1","OBJECT_ID":"2023-100C","EPOCH":"2026-03-09T22:50:11.977728","MEAN_MOTION":15.06170613,"ECCENTRICITY":0.00043741,"INCLINATION":99.5156,"RA_OF_ASC_NODE":64.1519,"ARG_OF_PERICENTER":233.3149,"MEAN_ANOMALY":126.7671,"EPHEMERIS_TYPE":0,"CLASSIFICATION_TYPE":"U","NORAD_CAT_ID":57388,"ELEMENT_SET_NO":999,"REV_AT_EPOCH":14496,"BSTAR":0.00020885616,"MEAN_MOTION_DOT":2.969e-5,"MEAN_MOTION_DDOT":0}]
